SENTINEL-3A             
1 41335U 16011A   26198.30226814  .00000042  00000+0  35386-4 0  9991
2 41335  98.6236 265.2512 0001341  89.4511 270.6824 14.26740128542355
SENTINEL-3B             
1 43437U 18039A   26198.20528445  .00000049  00000+0  38460-4 0  9995
2 43437  98.6235 265.3046 0001192 119.8366 240.2933 14.26736730428409
