{"fetched_at":"2026-07-17T17:38:34.954Z","source":"https://celestrak.org/NORAD/elements/gp.php?NAME=SENTINEL&FORMAT=JSON","constellation":"sentinel-3","records":[{"OBJECT_NAME":"SENTINEL-3A","OBJECT_ID":"2016-011A","EPOCH":"2026-07-17T07:15:15.967296","CLASSIFICATION_TYPE":"U","MEAN_MOTION":14.26740128,"ECCENTRICITY":0.00013416,"INCLINATION":98.6236,"RA_OF_ASC_NODE":265.2512,"ARG_OF_PERICENTER":89.4511,"MEAN_ANOMALY":270.6824,"EPHEMERIS_TYPE":0,"NORAD_CAT_ID":41335,"ELEMENT_SET_NO":999,"REV_AT_EPOCH":54235,"BSTAR":0.000035385881,"MEAN_MOTION_DOT":4.2e-7,"MEAN_MOTION_DDOT":0},{"OBJECT_NAME":"SENTINEL-3B","OBJECT_ID":"2018-039A","EPOCH":"2026-07-17T04:55:36.576480","CLASSIFICATION_TYPE":"U","MEAN_MOTION":14.2673673,"ECCENTRICITY":0.00011929,"INCLINATION":98.6235,"RA_OF_ASC_NODE":265.3046,"ARG_OF_PERICENTER":119.8366,"MEAN_ANOMALY":240.2933,"EPHEMERIS_TYPE":0,"NORAD_CAT_ID":43437,"ELEMENT_SET_NO":999,"REV_AT_EPOCH":42840,"BSTAR":0.000038460351,"MEAN_MOTION_DOT":4.9e-7,"MEAN_MOTION_DDOT":0}]}
